BEIDOU-2 IGSO-1 (C06)   
1 36828U 10036A   23107.57339365 -.00000118  00000+0  00000+0 0  9990
2 36828  54.2077 173.4522 0035666 190.4324 155.8444  1.00263231 46624
BEIDOU-2 G4 (C04)       
1 37210U 10057A   23108.34444861 -.00000124  00000+0  00000+0 0  9990
2 37210   0.8956  50.6651 0000350 156.6835 282.8110  1.00271854 45692
BEIDOU-2 IGSO-2 (C07)   
1 37256U 10068A   23107.82365307 -.00000209  00000+0  00000+0 0  9995
2 37256  49.6618 285.9873 0024142 200.7321 124.1871  1.00271325 45193
BEIDOU-2 IGSO-3 (C08)   
1 37384U 11013A   23107.85134451 -.00000200  00000+0  00000+0 0  9996
2 37384  60.7393  51.2565 0022494 186.3317  21.9679  1.00274311 44077
BEIDOU-2 IGSO-4 (C09)   
1 37763U 11038A   23107.66569214 -.00000053  00000+0  00000+0 0  9998
2 37763  54.4854 175.9701 0107947 228.6740 134.4698  1.00260700 43058
BEIDOU-2 IGSO-5 (C10)   
1 37948U 11073A   23107.84296598 -.00000159  00000+0  00000+0 0  9991
2 37948  49.7849 285.6424 0085781 218.8704 100.1783  1.00264574 41806
BEIDOU-2 G5 (C05)       
1 38091U 12008A   23106.91095198  .00000041  00000+0  00000+0 0  9999
2 38091   1.3893  64.1901 0025497 319.6503 207.8120  1.00279226 40870
BEIDOU-2 M3 (C11)       
1 38250U 12018A   23107.37530890 -.00000083  00000+0  00000+0 0  9998
2 38250  56.5806 343.5085 0021197 262.6783 313.3585  1.86231419 74747
BEIDOU-2 M4 (C12)       
1 38251U 12018B   23107.31027634 -.00000082  00000+0  00000+0 0  9999
2 38251  56.4941 342.8146 0012241 269.6408 307.8673  1.86234424 74743
BEIDOU-2 M6 (C14)       
1 38775U 12050B   23107.36423478  .00000052  00000+0  00000+0 0  9993
2 38775  55.5945 101.4642 0014860 322.9878 125.5439  1.86231290 72124
BEIDOU-2 G6 (C02)       
1 38953U 12059A   23107.79928799 -.00000187  00000+0  00000+0 0  9993
2 38953   1.6826  82.3796 0011281 307.8309 187.2005  1.00274178 38319
BEIDOU-3S IGSO-1S (C31) 
1 40549U 15019A   23107.89711810 -.00000170  00000+0  00000+0 0  9993
2 40549  51.3509 309.1995 0036237 191.5365 123.5754  1.00288162 29482
BEIDOU-3S M2S (C57)     
1 40748U 15037A   23107.42526603 -.00000082  00000+0  00000+0 0  9999
2 40748  55.7377 341.4914 0005572  22.2371 181.3667  1.86233479 52575
BEIDOU-3S M1S (C58)     
1 40749U 15037B   23107.26616690 -.00000081  00000+0  00000+0 0  9997
2 40749  55.7424 341.4881 0006064 348.7179 242.1594  1.86233139 52568
BEIDOU-3S IGSO-2S (C56) 
1 40938U 15053A   23108.18642639 -.00000157  00000+0  00000+0 0  9993
2 40938  51.0268 272.3517 0045729 192.2781 264.8152  1.00268859 27750
BEIDOU-2 IGSO-6 (C13)   
1 41434U 16021A   23107.90461927 -.00000173  00000+0  00000+0 0  9997
2 41434  58.5504  49.6919 0047412 226.3955 350.8074  1.00266637 25884
BEIDOU-2 G7 (C03)       
1 41586U 16037A   23107.87719758 -.00000365  00000+0  00000+0 0  9999
2 41586   1.5541  65.5428 0009984 350.7195 215.6667  1.00264728 25192
BEIDOU-3 M1 (C19)       
1 43001U 17069A   23107.71151509  .00000049  00000+0  00000+0 0  9994
2 43001  55.7464 101.4914 0012604 293.2560 184.6168  1.86231654 37067
BEIDOU-3 M2 (C20)       
1 43002U 17069B   23107.54004253  .00000051  00000+0  00000+0 0  9992
2 43002  55.7455 101.5334 0010183 311.8273  93.7424  1.86230713 37052
BEIDOU-3 M7 (C27)       
1 43107U 18003A   23107.49378027 -.00000085  00000+0  00000+0 0  9992
2 43107  55.1925 342.2714 0005477  52.5252 128.7238  1.86232558 35819
BEIDOU-3 M8 (C28)       
1 43108U 18003B   23107.53129370 -.00000085  00000+0  00000+0 0  9993
2 43108  55.1864 342.2580 0002588 281.0689 327.5235  1.86231049 35816
BEIDOU-3 M4 (C22)       
1 43207U 18018A   23107.06654884  .00000056  00000+0  00000+0 0  9997
2 43207  55.7045 101.6173 0007105 326.5453  33.4245  1.86231607 35197
BEIDOU-3 M3 (C21)       
1 43208U 18018B   23107.13312446  .00000055  00000+0  00000+0 0  9990
2 43208  55.7043 101.6187 0010277 301.7540  58.1571  1.86231600 35196
BEIDOU-3 M9 (C29)       
1 43245U 18029A   23107.11485520 -.00000080  00000+0  00000+0 0  9994
2 43245  55.0934 340.0309 0001338   5.5979 192.2678  1.86232674 34343
BEIDOU-3 M10 (C30)      
1 43246U 18029B   23107.57617622 -.00000082  00000+0  10000-3 0  9992
2 43246  55.0896 340.0433 0005201   8.1042 185.8310  1.86232898 34341
BEIDOU-2 IGSO-7 (C16)   
1 43539U 18057A   23107.51050926 -.00000123  00000+0  00000+0 0  9991
2 43539  55.1013 173.0588 0059546 229.8270  98.8932  1.00273725 17556
BEIDOU-3 M5 (C23)       
1 43581U 18062A   23107.54371410 -.00000035  00000+0  00000+0 0  9993
2 43581  54.2022 221.6830 0001935 285.3442  98.6965  1.86231991 32093
BEIDOU-3 M6 (C24)       
1 43582U 18062B   23108.44314785 -.00000029  00000+0  00000+0 0  9999
2 43582  54.2016 221.6426 0005053  22.9945 335.1845  1.86229542 32103
BEIDOU-3 M12 (C26)      
1 43602U 18067A   23107.36106581 -.00000035  00000+0  00000+0 0  9997
2 43602  54.2875 220.3216 0007207  21.5869  12.8159  1.86231749 31585
BEIDOU-3 M11 (C25)      
1 43603U 18067B   23107.57452920 -.00000034  00000+0  00000+0 0  9991
2 43603  54.2851 220.2802 0004087  14.6377  73.1854  1.86231658 31604
BEIDOU-3 M13 (C32)      
1 43622U 18072A   23107.58763998  .00000050  00000+0  00000+0 0  9996
2 43622  55.6741 101.1442 0009126 289.7306 195.0786  1.86231583 31112
BEIDOU-3 M14 (C33)      
1 43623U 18072B   23107.52943782  .00000050  00000+0  00000+0 0  9992
2 43623  55.6757 101.1382 0006703 306.5151 229.5110  1.86231583 31111
BEIDOU-3 M16 (C35)      
1 43647U 18078A   23108.13405084 -.00000085  00000+0  10000-3 0  9994
2 43647  54.9884 340.1293 0008531  13.0428 101.8172  1.86227382 30632
BEIDOU-3 M15 (C34)      
1 43648U 18078B   23106.22334064 -.00000077  00000+0  00000+0 0  9998
2 43648  54.9846 340.1997 0005553  21.8041 161.9536  1.86232272 30614
BEIDOU-3 G1 (C59)       
1 43683U 18085A   23107.59423882 -.00000289  00000+0  00000+0 0  9998
2 43683   1.2271 135.5081 0004244 305.8629 118.1301  1.00272133 16459
BEIDOU-3 M17 (C36)      
1 43706U 18093A   23108.24617467 -.00000031  00000+0  00000+0 0  9995
2 43706  54.2834 221.5679 0008137 277.0345  82.8524  1.86231835 29992
BEIDOU-3 M18 (C37)      
1 43707U 18093B   23107.52924625 -.00000035  00000+0  00000+0 0  9997
2 43707  54.2845 221.5823 0006205 315.6857  14.5633  1.86229819 29988
BEIDOU-3 IGSO-1 (C38)   
1 44204U 19023A   23106.83440586 -.00000226  00000+0  00000+0 0  9998
2 44204  57.0136  49.7287 0019383 208.1650   6.7362  1.00271422 14751
BEIDOU-2 G8 (C01)       
1 44231U 19027A   23107.58337175 -.00000258  00000+0  00000+0 0  9999
2 44231   1.6077  80.9833 0004201 135.5352 343.4953  1.00273324 14478
BEIDOU-3 IGSO-2 (C39)   
1 44337U 19035A   23107.57669899 -.00000119  00000+0  00000+0 0  9991
2 44337  55.1398 169.0220 0030526 199.5720 163.6091  1.00264647 14105
BEIDOU-3 M24 (C46)      
1 44542U 19061A   23107.10931033 -.00000036  00000+0  00000+0 0  9997
2 44542  54.5108 221.8087 0007299 351.5959   8.3684  1.86231078 24243
BEIDOU-3 M23 (C45)      
1 44543U 19061B   23107.71937468 -.00000034  00000+0  00000+0 0  9991
2 44543  54.5099 221.7558 0004305 347.9239 332.7645  1.86231674 24243
BEIDOU-3 IGSO-3 (C40)   
1 44709U 19073A   23106.90666175 -.00000171  00000+0  00000+0 0  9994
2 44709  56.7673 293.2174 0029964 176.8366 180.4529  1.00270668 12838
BEIDOU-3 M22 (C44)      
1 44793U 19078A   23107.25014544 -.00000081  00000+0  10000-3 0  9993
2 44793  54.8355 340.1441 0007482  17.0634 181.3155  1.86232226 23100
BEIDOU-3 M21 (C43)      
1 44794U 19078B   23107.54828951 -.00000083  00000+0  00000+0 0  9998
2 44794  54.8111 340.1184 0005153  18.7689 291.7129  1.86232802 23103
BEIDOU-3 M19 (C41)      
1 44864U 19090A   23107.53737382  .00000050  00000+0  00000+0 0  9999
2 44864  55.6082 101.3408 0019648 276.0472 221.1993  1.86231914 22698
BEIDOU-3 M20 (C42)      
1 44865U 19090B   23107.36708444  .00000052  00000+0  00000+0 0  9990
2 44865  55.6103 101.3787 0017632 287.7609 185.1291  1.86231825 22663
BEIDOU-3 G2 (C60)       
1 45344U 20017A   23107.86367185 -.00000154  00000+0  00000+0 0  9996
2 45344   1.9974   8.6747 0002117  67.0958 160.9061  1.00272016 11666
BEIDOU-3 G3 (C61)       
1 45807U 20040A   23107.87719757 -.00000368  00000+0  00000+0 0  9990
2 45807   0.8073 321.7645 0005712 331.7001 338.5642  1.00266742 10484
